      2.10          N: GNSS NAV DATA                        RINEX VERSION / TYPE
fic2rin                                 01/24/2020 00:20:06 PGM / RUN BY / DATE
                                                            END OF HEADER
22 20  1 23 11 59 44.0-7.828231900930e-04-1.136868377216e-12 0.000000000000e+00
    4.800000000000e+01-6.646875000000e+01 5.122713381574e-09 5.646243347785e-01
   -3.514811396599e-06 7.017311523668e-03 1.134723424911e-05 5.153595972061e+03
    3.887840000000e+05-5.587935447693e-08 3.765150296480e-03-1.117587089539e-07
    9.299818184356e-01 1.495937500000e+02-1.238194368908e+00-8.263201338361e-09
    3.128701751558e-10 1.000000000000e+00 2.089000000000e+03 0.000000000000e+00
    2.400000000000e+00 0.000000000000e+00-1.816079020500e-08 4.800000000000e+01
    3.822900000000e+05 4.000000000000e+00
32 20  1 23 11 59 44.0 1.927902922034e-04 1.045918907039e-11 0.000000000000e+00
    1.100000000000e+01 2.153125000000e+01 4.952349142363e-09 2.279558119283e+00
    1.085922122002e-06 3.461521933787e-03 6.098300218582e-06 5.153666088104e+03
    3.887840000000e+05-1.192092895508e-07 1.124546268609e+00-6.519258022308e-08
    9.564745524100e-01 2.606562500000e+02-2.544074355640e+00-8.104623304378e-09
    3.775157250453e-10 1.000000000000e+00 2.089000000000e+03 0.000000000000e+00
    2.400000000000e+00 0.000000000000e+00 4.656612873077e-10 1.100000000000e+01
    3.864300000000e+05 4.000000000000e+00
17 20  1 23 11 59 44.0 2.035610377789e-04 6.593836587854e-12 0.000000000000e+00
    3.100000000000e+01 6.115625000000e+01 4.204103689222e-09 1.410356308967e+00
    3.004446625710e-06 1.344043132849e-02 1.121312379837e-06 5.153636756897e+03
    3.887840000000e+05-1.769512891769e-07-1.953758538822e+00-3.539025783539e-07
    9.840153955053e-01 3.680000000000e+02-1.659322807238e+00-8.291416799362e-09
    2.714398779890e-10 1.000000000000e+00 2.089000000000e+03 0.000000000000e+00
    2.400000000000e+00 0.000000000000e+00-1.117587089539e-08 3.100000000000e+01
    3.869700000000e+05 4.000000000000e+00
24 20  1 23 11 59 44.0-7.966533303261e-06-4.547473508865e-13 0.000000000000e+00
    1.200000000000e+01-1.987500000000e+01 5.373080953246e-09-4.547276713813e-01
   -1.059845089912e-06 9.476643870585e-03 6.983056664467e-06 5.153655626297e+03
    3.887840000000e+05 7.264316082001e-08 2.121879071135e+00 1.136213541031e-07
    9.367791575721e-01 2.301250000000e+02 6.509818753224e-01-8.447494729206e-09
   -6.568130731866e-10 1.000000000000e+00 2.089000000000e+03 0.000000000000e+00
    2.400000000000e+00 0.000000000000e+00 2.793967723846e-09 1.200000000000e+01
    3.870000000000e+05 4.000000000000e+00
 1 20  1 23 11 59 44.0-2.715573646128e-04-1.216449163621e-11 0.000000000000e+00
    1.900000000000e+01-1.213125000000e+02 4.262677557630e-09-6.739365082750e-01
   -6.206333637238e-06 9.299666853622e-03 4.459172487259e-06 5.153638746262e+03
    3.887840000000e+05 4.842877388000e-08-9.554052807163e-01 1.527369022369e-07
    9.785794757288e-01 3.025625000000e+02 7.573954536579e-01-8.166768750128e-09
   -2.292952653539e-10 1.000000000000e+00 2.089000000000e+03 0.000000000000e+00
    2.400000000000e+00 0.000000000000e+00 5.587935447693e-09 1.900000000000e+01
    3.872400000000e+05 4.000000000000e+00
 1 20  1 23 13 59 44.0-2.716449089348e-04-1.216449163621e-11 0.000000000000e+00
    2.000000000000e+01-1.109062500000e+02 4.158030341511e-09 3.763387377790e-01
   -5.887821316719e-06 9.301498183049e-03 4.017725586891e-06 5.153642417908e+03
    3.959840000000e+05-3.166496753693e-08-9.554642465553e-01 1.247972249985e-07
    9.785777304675e-01 3.133125000000e+02 7.573186051083e-01-8.188555371914e-09
   -2.410814705824e-10 1.000000000000e+00 2.089000000000e+03 0.000000000000e+00
    2.400000000000e+00 0.000000000000e+00 5.587935447693e-09 2.000000000000e+01
    3.888000000000e+05 4.000000000000e+00
24 20  1 23 13 59 44.0-7.970258593559e-06-4.547473508865e-13 0.000000000000e+00
    1.600000000000e+01-1.440625000000e+01 5.377724003790e-09 5.954644311866e-01
   -5.830079317093e-07 9.477432002313e-03 6.929039955139e-06 5.153657140732e+03
    3.959840000000e+05-1.676380634308e-08 2.121818557528e+00 1.303851604462e-07
    9.367744264950e-01 2.308750000000e+02 6.509873071372e-01-8.412850428989e-09
   -7.018149476953e-10 1.000000000000e+00 2.089000000000e+03 0.000000000000e+00
    2.400000000000e+00 0.000000000000e+00 2.793967723846e-09 1.600000000000e+01
    3.888000000000e+05 4.000000000000e+00
17 20  1 23 13 59 44.0 2.036085352302e-04 6.593836587854e-12 0.000000000000e+00
    3.200000000000e+01 6.850000000000e+01 3.966950953716e-09 2.460468525967e+00
    3.470107913017e-06 1.343980315141e-02 6.817281246185e-07 5.153639238358e+03
    3.959840000000e+05 1.713633537292e-07-1.953815872045e+00-7.264316082001e-08
    9.840189386928e-01 3.745000000000e+02-1.659235728502e+00-7.874613723555e-09
    1.910793877949e-10 1.000000000000e+00 2.089000000000e+03 0.000000000000e+00
    2.400000000000e+00 0.000000000000e+00-1.117587089539e-08 3.200000000000e+01
    3.888000000000e+05 4.000000000000e+00
32 20  1 23 13 59 44.0 1.928652636707e-04 1.045918907039e-11 0.000000000000e+00
    2.200000000000e+01 1.828125000000e+01 4.974492921883e-09-2.953351388860e+00
    9.741634130478e-07 3.462382825091e-03 6.280839443207e-06 5.153664371490e+03
    3.959840000000e+05-2.235174179077e-08 1.124488234649e+00-8.754432201385e-08
    9.564775513921e-01 2.550625000000e+02-2.544160931132e+00-8.045692278235e-09
    3.846588797292e-10 1.000000000000e+00 2.089000000000e+03 0.000000000000e+00
    2.400000000000e+00 0.000000000000e+00 4.656612873077e-10 2.200000000000e+01
    3.888000000000e+05 4.000000000000e+00
 3 20  1 23 14  0  0.0-7.838290184736e-05-8.071765478235e-12 0.000000000000e+00
    3.200000000000e+01-6.325000000000e+01 4.236247885300e-09-7.663379412570e-01
   -3.244727849960e-06 2.601578831673e-03 1.113303005695e-05 5.153636709213e+03
    3.960000000000e+05 1.117587089539e-08 8.555625935019e-02 1.490116119385e-08
    9.651616759550e-01 1.709375000000e+02 7.527249999148e-01-7.760680406347e-09
    3.782300405137e-10 1.000000000000e+00 2.089000000000e+03 0.000000000000e+00
    2.400000000000e+00 0.000000000000e+00 1.862645149231e-09 3.200000000000e+01
    3.888000000000e+05 4.000000000000e+00
 2 20  1 23 14  0  0.0-3.912984393537e-04-7.048583938740e-12 0.000000000000e+00
    9.200000000000e+01-1.121250000000e+02 4.794842581582e-09 6.630392329654e-01
   -6.029382348061e-06 1.975671621040e-02 3.766268491745e-06 5.153621109009e+03
    3.960000000000e+05-2.700835466385e-07-1.029195603019e+00-5.215406417847e-08
    9.575765627475e-01 3.076250000000e+02-1.672139918219e+00-8.728935023752e-09
   -3.167989102319e-10 1.000000000000e+00 2.089000000000e+03 0.000000000000e+00
    2.400000000000e+00 0.000000000000e+00-1.769512891769e-08 9.200000000000e+01
    3.888000000000e+05 4.000000000000e+00
10 20  1 23 14  0  0.0-2.196845598519e-04-1.341504685115e-11 0.000000000000e+00
    1.200000000000e+01-7.487500000000e+01 4.134457931054e-09-1.665075636032e+00
   -3.967434167862e-06 5.342787713744e-03 1.123920083046e-05 5.153670764923e+03
    3.960000000000e+05 7.264316082001e-08 8.245081488739e-02-1.303851604462e-08
    9.651369892124e-01 1.633437500000e+02-2.693900934987e+00-7.629603517897e-09
    4.689481049995e-10 1.000000000000e+00 2.089000000000e+03 0.000000000000e+00
    2.400000000000e+00 0.000000000000e+00 1.862645149231e-09 1.200000000000e+01
    3.888000000000e+05 4.000000000000e+00
 5 20  1 23 14  0  0.0-6.506685167551e-06-5.684341886081e-13 0.000000000000e+00
    5.900000000000e+01-6.740625000000e+01 4.464471677451e-09-3.019834666498e+00
   -3.607943654060e-06 5.762958317064e-03 1.185946166515e-05 5.153593179703e+03
    3.960000000000e+05-3.166496753693e-08 5.540020295511e-02-8.940696716309e-08
    9.520531297486e-01 1.468750000000e+02 7.987298777569e-01-7.740322415498e-09
    4.185888644778e-10 1.000000000000e+00 2.089000000000e+03 0.000000000000e+00
    2.400000000000e+00 0.000000000000e+00-1.117587089539e-08 5.900000000000e+01
    3.888000000000e+05 4.000000000000e+00
 7 20  1 23 14  0  0.0-1.984108239412e-04-8.299139153678e-12 0.000000000000e+00
    9.300000000000e+01-1.565625000000e+01 4.926633785501e-09-3.425436653472e-01
   -8.475035429001e-07 1.326693873852e-02 7.422640919685e-06 5.153697811127e+03
    3.960000000000e+05-2.048909664154e-08 2.191860990505e+00 2.011656761169e-07
    9.535908439034e-01 2.315000000000e+02-2.418346365833e+00-8.325703941845e-09
   -6.889572692642e-10 1.000000000000e+00 2.089000000000e+03 0.000000000000e+00
    2.400000000000e+00 0.000000000000e+00-1.117587089539e-08 9.300000000000e+01
    3.888000000000e+05 4.000000000000e+00
 9 20  1 23 14  0  0.0-1.390674151480e-04-8.753886504564e-12 0.000000000000e+00
    1.040000000000e+02 2.490625000000e+01 5.182358723185e-09 2.997410777299e+00
    1.439824700356e-06 1.792760333046e-03 5.943700671196e-06 5.153793912888e+03
    3.960000000000e+05 1.154839992523e-07 1.116657782765e+00 9.313225746155e-09
    9.523135730542e-01 2.603750000000e+02 1.758416192201e+00-8.263201338361e-09
    3.903734034763e-10 1.000000000000e+00 2.089000000000e+03 0.000000000000e+00
    3.400000000000e+00 0.000000000000e+00 1.396983861923e-09 1.040000000000e+02
    3.888000000000e+05 4.000000000000e+00
 6 20  1 23 14  0  0.0-1.898235641420e-04-1.000444171950e-11 0.000000000000e+00
    7.000000000000e+01-1.206875000000e+02 4.139815297067e-09 6.824177612103e-01
   -6.239861249924e-06 1.828836509958e-03 4.259869456291e-06 5.153740091324e+03
    3.960000000000e+05-6.146728992462e-08-9.637258233231e-01-2.235174179077e-08
    9.781653470273e-01 3.024062500000e+02-1.171907947379e+00-8.085336786731e-09
   -1.985797002130e-10 1.000000000000e+00 2.089000000000e+03 0.000000000000e+00
    2.400000000000e+00 0.000000000000e+00 4.656612873077e-09 7.000000000000e+01
    3.888000000000e+05 4.000000000000e+00
